{
  "type": "FeatureCollection",
  "features": [
    {
      "type": "Feature",
      "properties": {
        "norad_id": 34314,
        "name": "COSMOS 2251 DEB",
        "group": "cosmos-2251-debris",
        "lat": -25.00488703961976,
        "lon": -45.85419327550259,
        "alt_km": 845.6569932285429,
        "timestamp": "2025-12-05T04:52:15.684297+00:00",
        "meta_object_name": "COSMOS 2251 DEB",
        "meta_object_id": "1993-036NL",
        "meta_epoch": "2025-12-04T11:07:33.382848",
        "meta_mean_motion": 14.17391875,
        "meta_eccentricity": 0.0102549,
        "meta_inclination": 74.0054,
        "meta_ra_of_asc_node": 323.1527,
        "meta_arg_of_pericenter": 70.9597,
        "meta_mean_anomaly": 92.9534,
        "meta_ephemeris_type": 0,
        "meta_classification_type": "U",
        "meta_norad_cat_id": 34314,
        "meta_element_set_no": 999,
        "meta_rev_at_epoch": 86540,
        "meta_bstar": 0.0011046,
        "meta_mean_motion_dot": 2.331e-05,
        "meta_mean_motion_ddot": 0,
        "tle_line1": "1 34314U 93036NL  25338.46358082  .00002331  00000+0  11046-2 0  9995",
        "tle_line2": "2 34314  74.0054 323.1527 0102549  70.9597  92.9534 14.17391875865409"
      },
      "geometry": {
        "type": "Point",
        "coordinates": [
          -45.85419327550259,
          -25.00488703961976
        ]
      }
    },
    {
      "type": "Feature",
      "properties": {
        "norad_id": 34316,
        "name": "COSMOS 2251 DEB",
        "group": "cosmos-2251-debris",
        "lat": -43.73113152431028,
        "lon": -23.87790748563624,
        "alt_km": 602.8820031854939,
        "timestamp": "2025-12-05T04:52:15.684313+00:00",
        "meta_object_name": "COSMOS 2251 DEB",
        "meta_object_id": "1993-036NN",
        "meta_epoch": "2025-12-04T01:42:33.573024",
        "meta_mean_motion": 14.91417164,
        "meta_eccentricity": 0.00078302,
        "meta_inclination": 74.0649,
        "meta_ra_of_asc_node": 354.2493,
        "meta_arg_of_pericenter": 83.2481,
        "meta_mean_anomaly": 276.9592,
        "meta_ephemeris_type": 0,
        "meta_classification_type": "U",
        "meta_norad_cat_id": 34316,
        "meta_element_set_no": 999,
        "meta_rev_at_epoch": 89080,
        "meta_bstar": 0.0032225816,
        "meta_mean_motion_dot": 0.00032335,
        "meta_mean_motion_ddot": 0,
        "tle_line1": "1 34316U 93036NN  25338.07122191  .00032335  00000+0  32226-2 0  9994",
        "tle_line2": "2 34316  74.0649 354.2493 0007830  83.2481 276.9592 14.91417164890806"
      },
      "geometry": {
        "type": "Point",
        "coordinates": [
          -23.87790748563624,
          -43.73113152431028
        ]
      }
    },
    {
      "type": "Feature",
      "properties": {
        "norad_id": 34317,
        "name": "COSMOS 2251 DEB",
        "group": "cosmos-2251-debris",
        "lat": -63.01478439864999,
        "lon": -97.34517175468355,
        "alt_km": 1239.3360733738573,
        "timestamp": "2025-12-05T04:52:15.684322+00:00",
        "meta_object_name": "COSMOS 2251 DEB",
        "meta_object_id": "1993-036NP",
        "meta_epoch": "2025-12-04T14:09:11.640384",
        "meta_mean_motion": 13.65111965,
        "meta_eccentricity": 0.0336301,
        "meta_inclination": 73.9249,
        "meta_ra_of_asc_node": 49.1742,
        "meta_arg_of_pericenter": 40.0313,
        "meta_mean_anomaly": 77.2867,
        "meta_ephemeris_type": 0,
        "meta_classification_type": "U",
        "meta_norad_cat_id": 34317,
        "meta_element_set_no": 999,
        "meta_rev_at_epoch": 83508,
        "meta_bstar": 0.00062347,
        "meta_mean_motion_dot": 7.22e-06,
        "meta_mean_motion_ddot": 0,
        "tle_line1": "1 34317U 93036NP  25338.58971806  .00000722  00000+0  62347-3 0  9999",
        "tle_line2": "2 34317  73.9249  49.1742 0336301  40.0313  77.2867 13.65111965835087"
      },
      "geometry": {
        "type": "Point",
        "coordinates": [
          -97.34517175468355,
          -63.01478439864999
        ]
      }
    },
    {
      "type": "Feature",
      "properties": {
        "norad_id": 34321,
        "name": "COSMOS 2251 DEB",
        "group": "cosmos-2251-debris",
        "lat": 27.214981285116263,
        "lon": -17.948535303144784,
        "alt_km": 733.6951339979341,
        "timestamp": "2025-12-05T04:52:15.684331+00:00",
        "meta_object_name": "COSMOS 2251 DEB",
        "meta_object_id": "1993-036NT",
        "meta_epoch": "2025-12-04T15:13:59.166912",
        "meta_mean_motion": 14.50002488,
        "meta_eccentricity": 0.0015638,
        "meta_inclination": 74.0277,
        "meta_ra_of_asc_node": 171.5885,
        "meta_arg_of_pericenter": 301.6217,
        "meta_mean_anomaly": 124.9175,
        "meta_ephemeris_type": 0,
        "meta_classification_type": "U",
        "meta_norad_cat_id": 34321,
        "meta_element_set_no": 999,
        "meta_rev_at_epoch": 88369,
        "meta_bstar": 0.0010736,
        "meta_mean_motion_dot": 4.139e-05,
        "meta_mean_motion_ddot": 0,
        "tle_line1": "1 34321U 93036NT  25338.63471258  .00004139  00000+0  10736-2 0  9996",
        "tle_line2": "2 34321  74.0277 171.5885 0015638 301.6217 124.9175 14.50002488883695"
      },
      "geometry": {
        "type": "Point",
        "coordinates": [
          -17.948535303144784,
          27.214981285116263
        ]
      }
    },
    {
      "type": "Feature",
      "properties": {
        "norad_id": 34323,
        "name": "COSMOS 2251 DEB",
        "group": "cosmos-2251-debris",
        "lat": -48.912818436812664,
        "lon": -22.824874125275308,
        "alt_km": 626.0035085429136,
        "timestamp": "2025-12-05T04:52:15.684340+00:00",
        "meta_object_name": "COSMOS 2251 DEB",
        "meta_object_id": "1993-036NV",
        "meta_epoch": "2025-12-04T13:27:56.308032",
        "meta_mean_motion": 14.73983998,
        "meta_eccentricity": 0.0060809,
        "meta_inclination": 73.9522,
        "meta_ra_of_asc_node": 139.1582,
        "meta_arg_of_pericenter": 184.9957,
        "meta_mean_anomaly": 241.3253,
        "meta_ephemeris_type": 0,
        "meta_classification_type": "U",
        "meta_norad_cat_id": 34323,
        "meta_element_set_no": 999,
        "meta_rev_at_epoch": 88319,
        "meta_bstar": 0.0057979,
        "meta_mean_motion_dot": 0.00039435,
        "meta_mean_motion_ddot": 0,
        "tle_line1": "1 34323U 93036NV  25338.56106838  .00039435  00000+0  57979-2 0  9996",
        "tle_line2": "2 34323  73.9522 139.1582 0060809 184.9957 241.3253 14.73983998883190"
      },
      "geometry": {
        "type": "Point",
        "coordinates": [
          -22.824874125275308,
          -48.912818436812664
        ]
      }
    },
    {
      "type": "Feature",
      "properties": {
        "norad_id": 34325,
        "name": "COSMOS 2251 DEB",
        "group": "cosmos-2251-debris",
        "lat": 3.8069079372571775,
        "lon": 24.98288535389494,
        "alt_km": 787.1664933012707,
        "timestamp": "2025-12-05T04:52:15.684349+00:00",
        "meta_object_name": "COSMOS 2251 DEB",
        "meta_object_id": "1993-036NX",
        "meta_epoch": "2025-12-04T10:03:25.519968",
        "meta_mean_motion": 14.0439565,
        "meta_eccentricity": 0.019312,
        "meta_inclination": 73.8712,
        "meta_ra_of_asc_node": 207.4667,
        "meta_arg_of_pericenter": 226.4548,
        "meta_mean_anomaly": 309.3059,
        "meta_ephemeris_type": 0,
        "meta_classification_type": "U",
        "meta_norad_cat_id": 34325,
        "meta_element_set_no": 999,
        "meta_rev_at_epoch": 85398,
        "meta_bstar": 0.0037133,
        "meta_mean_motion_dot": 6.962e-05,
        "meta_mean_motion_ddot": 0,
        "tle_line1": "1 34325U 93036NX  25338.41904537  .00006962  00000+0  37133-2 0  9993",
        "tle_line2": "2 34325  73.8712 207.4667 0193120 226.4548 309.3059 14.04395650853985"
      },
      "geometry": {
        "type": "Point",
        "coordinates": [
          24.98288535389494,
          3.8069079372571775
        ]
      }
    },
    {
      "type": "Feature",
      "properties": {
        "norad_id": 34327,
        "name": "COSMOS 2251 DEB",
        "group": "cosmos-2251-debris",
        "lat": -37.47709138298771,
        "lon": 19.69434851499916,
        "alt_km": 625.9497569512723,
        "timestamp": "2025-12-05T04:52:15.684358+00:00",
        "meta_object_name": "COSMOS 2251 DEB",
        "meta_object_id": "1993-036NZ",
        "meta_epoch": "2025-12-04T15:14:10.390272",
        "meta_mean_motion": 14.88908111,
        "meta_eccentricity": 0.0032336,
        "meta_inclination": 73.9934,
        "meta_ra_of_asc_node": 188.1173,
        "meta_arg_of_pericenter": 6.2426,
        "meta_mean_anomaly": 49.2472,
        "meta_ephemeris_type": 0,
        "meta_classification_type": "U",
        "meta_norad_cat_id": 34327,
        "meta_element_set_no": 999,
        "meta_rev_at_epoch": 89387,
        "meta_bstar": 0.0027685,
        "meta_mean_motion_dot": 0.00026306,
        "meta_mean_motion_ddot": 0,
        "tle_line1": "1 34327U 93036NZ  25338.63484248  .00026306  00000+0  27685-2 0  9996",
        "tle_line2": "2 34327  73.9934 188.1173 0032336   6.2426  49.2472 14.88908111893876"
      },
      "geometry": {
        "type": "Point",
        "coordinates": [
          19.69434851499916,
          -37.47709138298771
        ]
      }
    }
  ]
}